ORBITAL FACTORY 2 (OF-2)
1 45113U 19071C   20207.21857659  .00001131  00000-0  45956-4 0  9995
2 45113  51.6432 181.1001 0012753 191.6539 168.4150 15.33456106 26929
M2 PATHFINDER           
1 45727U 20037E   20207.04951126  .00000064  00000-0  11999-4 0  9999
2 45727  97.7021  26.3040 0013244 168.2647 191.8886 14.91206049  3624
